[{"OBJECT_NAME":"STARLINK-32691","OBJECT_ID":"2025-003Q","EPOCH":"2026-03-09T23:05:22.700256","MEAN_MOTION":15.27604405,"ECCENTRICITY":5.889e-5,"INCLINATION":43.0004,"RA_OF_ASC_NODE":287.389,"ARG_OF_PERICENTER":6.0113,"MEAN_ANOMALY":354.0745,"EPHEMERIS_TYPE":0,"CLASSIFICATION_TYPE":"U","NORAD_CAT_ID":62501,"ELEMENT_SET_NO":999,"REV_AT_EPOCH":6670,"BSTAR":0.0012775534,"MEAN_MOTION_DOT":0.00035087,"MEAN_MOTION_DDOT":0},{"OBJECT_NAME":"FLOCK 4G-29","OBJECT_ID":"2025-009AK","EPOCH":"2026-03-09T19:33:04.927968","MEAN_MOTION":15.27382318,"ECCENTRICITY":0.00013664,"INCLINATION":97.4058,"RA_OF_ASC_NODE":151.3683,"ARG_OF_PERICENTER":288.0502,"MEAN_ANOMALY":72.0588,"EPHEMERIS_TYPE":0,"CLASSIFICATION_TYPE":"U","NORAD_CAT_ID":62642,"ELEMENT_SET_NO":999,"REV_AT_EPOCH":6372,"BSTAR":0.0004183135,"MEAN_MOTION_DOT":0.00011147,"MEAN_MOTION_DDOT":0}]
